[
  {
    "OBJECT_NAME": "STARLINK-1678",
    "OBJECT_ID": "20070G",
    "EPOCH": "2025-11-11T06:25:00.077664",
    "MEAN_MOTION": 15.45167306,
    "ECCENTRICITY": 0.0003027,
    "INCLINATION": 53.0515,
    "RA_OF_ASC_NODE": 323.8936,
    "ARG_OF_PERICENTER": 222.857,
    "MEAN_ANOMALY": 137.22,
    "EPHEMERIS_TYPE": 0,
    "CLASSIFICATION_TYPE": "U",
    "NORAD_CAT_ID": 46538,
    "ELEMENT_SET_NO": 999,
    "REV_AT_EPOCH": 28199,
    "BSTAR": 0.00097341,
    "MEAN_MOTION_DOT": 0.00046759,
    "MEAN_MOTION_DDOT": 0.0,
    "TLE_LINE1": "1 46538U 20070G   25315.26736201  .00046759  00000+0  97341-3 0  9995",
    "TLE_LINE2": "2 46538  53.0515 323.8936 0003027 222.8570 137.2200 15.45167306281991",
    "COMMENT": "Grouped by shell and plane from TLE"
  },
  {
    "OBJECT_NAME": "STARLINK-1679",
    "OBJECT_ID": "20070AB",
    "EPOCH": "2025-11-11T07:41:21.803136",
    "MEAN_MOTION": 15.31535654,
    "ECCENTRICITY": 0.0006779,
    "INCLINATION": 53.0569,
    "RA_OF_ASC_NODE": 326.9852,
    "ARG_OF_PERICENTER": 33.2673,
    "MEAN_ANOMALY": 326.8752,
    "EPHEMERIS_TYPE": 0,
    "CLASSIFICATION_TYPE": "U",
    "NORAD_CAT_ID": 46557,
    "ELEMENT_SET_NO": 999,
    "REV_AT_EPOCH": 28195,
    "BSTAR": 0.0032145000000000003,
    "MEAN_MOTION_DOT": 0.00100278,
    "MEAN_MOTION_DDOT": 0.0,
    "TLE_LINE1": "1 46557U 20070AB  25315.32039124  .00100278  00000+0  32145-2 0  9990",
    "TLE_LINE2": "2 46557  53.0569 326.9852 0006779  33.2673 326.8752 15.31535654281951",
    "COMMENT": "Grouped by shell and plane from TLE"
  },
  {
    "OBJECT_NAME": "STARLINK-1680",
    "OBJECT_ID": "20070AC",
    "EPOCH": "2025-11-11T07:15:20.278656",
    "MEAN_MOTION": 15.42661187,
    "ECCENTRICITY": 0.0011312,
    "INCLINATION": 53.0525,
    "RA_OF_ASC_NODE": 323.9394,
    "ARG_OF_PERICENTER": 17.4605,
    "MEAN_ANOMALY": 342.6786,
    "EPHEMERIS_TYPE": 0,
    "CLASSIFICATION_TYPE": "U",
    "NORAD_CAT_ID": 46558,
    "ELEMENT_SET_NO": 999,
    "REV_AT_EPOCH": 28197,
    "BSTAR": 0.0010103,
    "MEAN_MOTION_DOT": 0.00044648,
    "MEAN_MOTION_DDOT": 0.0,
    "TLE_LINE1": "1 46558U 20070AC  25315.30231804  .00044648  00000+0  10103-2 0  9996",
    "TLE_LINE2": "2 46558  53.0525 323.9394 0011312  17.4605 342.6786 15.42661187281978",
    "COMMENT": "Grouped by shell and plane from TLE"
  },
  {
    "OBJECT_NAME": "STARLINK-1733",
    "OBJECT_ID": "20070AJ",
    "EPOCH": "2025-11-11T06:15:48.259008",
    "MEAN_MOTION": 15.39722694,
    "ECCENTRICITY": 0.000669,
    "INCLINATION": 53.0552,
    "RA_OF_ASC_NODE": 320.1579,
    "ARG_OF_PERICENTER": 41.6897,
    "MEAN_ANOMALY": 318.4615,
    "EPHEMERIS_TYPE": 0,
    "CLASSIFICATION_TYPE": "U",
    "NORAD_CAT_ID": 46564,
    "ELEMENT_SET_NO": 999,
    "REV_AT_EPOCH": 28203,
    "BSTAR": 0.0034279,
    "MEAN_MOTION_DOT": 0.00139814,
    "MEAN_MOTION_DDOT": 0.0,
    "TLE_LINE1": "1 46564U 20070AJ  25315.26097522  .00139814  00000+0  34279-2 0  9995",
    "TLE_LINE2": "2 46564  53.0552 320.1579 0006690  41.6897 318.4615 15.39722694282031",
    "COMMENT": "Grouped by shell and plane from TLE"
  },
  {
    "OBJECT_NAME": "STARLINK-1735",
    "OBJECT_ID": "20070AK",
    "EPOCH": "2025-11-11T06:40:42.905568",
    "MEAN_MOTION": 15.3538153,
    "ECCENTRICITY": 0.0002498,
    "INCLINATION": 53.054,
    "RA_OF_ASC_NODE": 325.4179,
    "ARG_OF_PERICENTER": 50.2081,
    "MEAN_ANOMALY": 309.9141,
    "EPHEMERIS_TYPE": 0,
    "CLASSIFICATION_TYPE": "U",
    "NORAD_CAT_ID": 46565,
    "ELEMENT_SET_NO": 999,
    "REV_AT_EPOCH": 28197,
    "BSTAR": 0.0034641,
    "MEAN_MOTION_DOT": 0.00122373,
    "MEAN_MOTION_DDOT": 0.0,
    "TLE_LINE1": "1 46565U 20070AK  25315.27827437  .00122373  00000+0  34641-2 0  9998",
    "TLE_LINE2": "2 46565  53.0540 325.4179 0002498  50.2081 309.9141 15.35381530281973",
    "COMMENT": "Grouped by shell and plane from TLE"
  },
  {
    "OBJECT_NAME": "STARLINK-1741",
    "OBJECT_ID": "20070AM",
    "EPOCH": "2025-11-11T07:30:17.691264",
    "MEAN_MOTION": 15.35443774,
    "ECCENTRICITY": 0.0003151,
    "INCLINATION": 53.0538,
    "RA_OF_ASC_NODE": 324.7703,
    "ARG_OF_PERICENTER": 51.9346,
    "MEAN_ANOMALY": 308.194,
    "EPHEMERIS_TYPE": 0,
    "CLASSIFICATION_TYPE": "U",
    "NORAD_CAT_ID": 46567,
    "ELEMENT_SET_NO": 999,
    "REV_AT_EPOCH": 28199,
    "BSTAR": 0.0035523,
    "MEAN_MOTION_DOT": 0.00125811,
    "MEAN_MOTION_DDOT": 0.0,
    "TLE_LINE1": "1 46567U 20070AM  25315.31270476  .00125811  00000+0  35523-2 0  9990",
    "TLE_LINE2": "2 46567  53.0538 324.7703 0003151  51.9346 308.1940 15.35443774281995",
    "COMMENT": "Grouped by shell and plane from TLE"
  },
  {
    "OBJECT_NAME": "STARLINK-1677",
    "OBJECT_ID": "20070AW",
    "EPOCH": "2025-11-11T06:18:48.868704",
    "MEAN_MOTION": 15.33357356,
    "ECCENTRICITY": 0.0004065,
    "INCLINATION": 53.0528,
    "RA_OF_ASC_NODE": 329.3744,
    "ARG_OF_PERICENTER": 40.0819,
    "MEAN_ANOMALY": 320.0482,
    "EPHEMERIS_TYPE": 0,
    "CLASSIFICATION_TYPE": "U",
    "NORAD_CAT_ID": 46576,
    "ELEMENT_SET_NO": 999,
    "REV_AT_EPOCH": 28192,
    "BSTAR": 0.0035804000000000005,
    "MEAN_MOTION_DOT": 0.00118561,
    "MEAN_MOTION_DDOT": 0.0,
    "TLE_LINE1": "1 46576U 20070AW  25315.26306561  .00118561  00000+0  35804-2 0  9995",
    "TLE_LINE2": "2 46576  53.0528 329.3744 0004065  40.0819 320.0482 15.33357356281924",
    "COMMENT": "Grouped by shell and plane from TLE"
  },
  {
    "OBJECT_NAME": "STARLINK-1728",
    "OBJECT_ID": "20070BC",
    "EPOCH": "2025-11-11T07:16:04.814400",
    "MEAN_MOTION": 15.29707993,
    "ECCENTRICITY": 0.0002652,
    "INCLINATION": 53.053,
    "RA_OF_ASC_NODE": 325.2174,
    "ARG_OF_PERICENTER": 64.8424,
    "MEAN_ANOMALY": 295.285,
    "EPHEMERIS_TYPE": 0,
    "CLASSIFICATION_TYPE": "U",
    "NORAD_CAT_ID": 46582,
    "ELEMENT_SET_NO": 999,
    "REV_AT_EPOCH": 28198,
    "BSTAR": 0.0035224,
    "MEAN_MOTION_DOT": 0.00103851,
    "MEAN_MOTION_DDOT": 0.0,
    "TLE_LINE1": "1 46582U 20070BC  25315.30283350  .00103851  00000+0  35224-2 0  9999",
    "TLE_LINE2": "2 46582  53.0530 325.2174 0002652  64.8424 295.2850 15.29707993281981",
    "COMMENT": "Grouped by shell and plane from TLE"
  },
  {
    "OBJECT_NAME": "STARLINK-1736",
    "OBJECT_ID": "20070BF",
    "EPOCH": "2025-11-11T06:08:52.293120",
    "MEAN_MOTION": 15.37225439,
    "ECCENTRICITY": 0.0002801,
    "INCLINATION": 53.0531,
    "RA_OF_ASC_NODE": 325.3923,
    "ARG_OF_PERICENTER": 50.8552,
    "MEAN_ANOMALY": 309.2699,
    "EPHEMERIS_TYPE": 0,
    "CLASSIFICATION_TYPE": "U",
    "NORAD_CAT_ID": 46585,
    "ELEMENT_SET_NO": 999,
    "REV_AT_EPOCH": 28197,
    "BSTAR": 0.0034575,
    "MEAN_MOTION_DOT": 0.00129739,
    "MEAN_MOTION_DDOT": 0.0,
    "TLE_LINE1": "1 46585U 20070BF  25315.25616080  .00129739  00000+0  34575-2 0  9997",
    "TLE_LINE2": "2 46585  53.0531 325.3923 0002801  50.8552 309.2699 15.37225439281976",
    "COMMENT": "Grouped by shell and plane from TLE"
  },
  {
    "OBJECT_NAME": "STARLINK-1746",
    "OBJECT_ID": "20070BJ",
    "EPOCH": "2025-11-11T08:00:03.000384",
    "MEAN_MOTION": 15.36003702,
    "ECCENTRICITY": 0.0004298,
    "INCLINATION": 53.0547,
    "RA_OF_ASC_NODE": 324.2217,
    "ARG_OF_PERICENTER": 44.0472,
    "MEAN_ANOMALY": 241.3777,
    "EPHEMERIS_TYPE": 0,
    "CLASSIFICATION_TYPE": "U",
    "NORAD_CAT_ID": 46588,
    "ELEMENT_SET_NO": 999,
    "REV_AT_EPOCH": 580,
    "BSTAR": 0.0034126,
    "MEAN_MOTION_DOT": 0.00123004,
    "MEAN_MOTION_DDOT": 0.0,
    "TLE_LINE1": "1 46588U 20070BJ  25315.33336806  .00123004  00000+0  34126-2 0  9995",
    "TLE_LINE2": "2 46588  53.0547 324.2217 0004298  44.0472 241.3777 15.36003702  5803",
    "COMMENT": "Grouped by shell and plane from TLE"
  },
  {
    "OBJECT_NAME": "STARLINK-31045",
    "OBJECT_ID": "23192L",
    "EPOCH": "2025-11-11T06:33:57.485664",
    "MEAN_MOTION": 15.30192814,
    "ECCENTRICITY": 9.43e-05,
    "INCLINATION": 53.161,
    "RA_OF_ASC_NODE": 329.6146,
    "ARG_OF_PERICENTER": 92.8659,
    "MEAN_ANOMALY": 267.2449,
    "EPHEMERIS_TYPE": 0,
    "CLASSIFICATION_TYPE": "U",
    "NORAD_CAT_ID": 58541,
    "ELEMENT_SET_NO": 999,
    "REV_AT_EPOCH": 10676,
    "BSTAR": 7.655300000000001e-05,
    "MEAN_MOTION_DOT": 1.908e-05,
    "MEAN_MOTION_DDOT": 0.0,
    "TLE_LINE1": "1 58541U 23192L   25315.27358201  .00001908  00000+0  76553-4 0  9991",
    "TLE_LINE2": "2 58541  53.1610 329.6146 0000943  92.8659 267.2449 15.30192814106765",
    "COMMENT": "Grouped by shell and plane from TLE"
  },
  {
    "OBJECT_NAME": "STARLINK-31059",
    "OBJECT_ID": "23200H",
    "EPOCH": "2025-11-11T00:43:34.416480",
    "MEAN_MOTION": 15.27603405,
    "ECCENTRICITY": 0.0002105,
    "INCLINATION": 43.002,
    "RA_OF_ASC_NODE": 322.2502,
    "ARG_OF_PERICENTER": 279.1757,
    "MEAN_ANOMALY": 80.8857,
    "EPHEMERIS_TYPE": 0,
    "CLASSIFICATION_TYPE": "U",
    "NORAD_CAT_ID": 58596,
    "ELEMENT_SET_NO": 999,
    "REV_AT_EPOCH": 10730,
    "BSTAR": 0.00024314,
    "MEAN_MOTION_DOT": 6.439e-05,
    "MEAN_MOTION_DDOT": 0.0,
    "TLE_LINE1": "1 58596U 23200H   25315.03025945  .00006439  00000+0  24314-3 0  9992",
    "TLE_LINE2": "2 58596  43.0020 322.2502 0002105 279.1757  80.8857 15.27603405107306",
    "COMMENT": "Grouped by shell and plane from TLE"
  },
  {
    "OBJECT_NAME": "STARLINK-30862",
    "OBJECT_ID": "24038K",
    "EPOCH": "2025-11-11T01:49:32.416032",
    "MEAN_MOTION": 15.27574953,
    "ECCENTRICITY": 0.000166,
    "INCLINATION": 43.0029,
    "RA_OF_ASC_NODE": 326.0389,
    "ARG_OF_PERICENTER": 279.3521,
    "MEAN_ANOMALY": 80.7143,
    "EPHEMERIS_TYPE": 0,
    "CLASSIFICATION_TYPE": "U",
    "NORAD_CAT_ID": 59032,
    "ELEMENT_SET_NO": 999,
    "REV_AT_EPOCH": 9663,
    "BSTAR": 0.00021008,
    "MEAN_MOTION_DOT": 5.522e-05,
    "MEAN_MOTION_DDOT": 0.0,
    "TLE_LINE1": "1 59032U 24038K   25315.07606963  .00005522  00000+0  21008-3 0  9996",
    "TLE_LINE2": "2 59032  43.0029 326.0389 0001660 279.3521  80.7143 15.27574953 96637",
    "COMMENT": "Grouped by shell and plane from TLE"
  }
]